NORAD_CAT_ID,OBJECT_NAME,OBJECT_TYPE,EPOCH,MEAN_MOTION,ECCENTRICITY,INCLINATION,RA_OF_ASC_NODE,ARG_OF_PERICENTER,MEAN_ANOMALY,BSTAR,MEAN_MOTION_DOT,MEAN_MOTION_DDOT,TLE_LINE0,TLE_LINE1,TLE_LINE2,SEMIMAJOR_AXIS,PERIOD,APOGEE,PERIGEE,DECAYED
51978.0,STARLINK-3666,PAYLOAD,2024-07-13 08:48:28,15.08843316,0.0001278,53.216,232.0537,85.3271,274.7867,4.108e-05,3.66e-06,0.0,0 STARLINK-3666,1 51978U 22025Y   24195.36699267  .00000366  00000-0  41080-4 0  9992,2 51978  53.2160 232.0537 0001278  85.3271 274.7867 15.08843316129827,6917.87,95.437,540.619,538.851,0.0
51978.0,STARLINK-3666,PAYLOAD,2024-07-13 19:56:09,15.08845241,0.0001279,53.2159,229.9721,85.1699,274.9439,4.9677e-05,5.03e-06,0.0,0 STARLINK-3666,1 51978U 22025Y   24195.83067071  .00000503  00000-0  49677-4 0  9999,2 51978  53.2159 229.9721 0001279  85.1699 274.9439 15.08845241129891,6917.864,95.437,540.614,538.845,0.0
51978.0,STARLINK-3666,PAYLOAD,2024-07-14 05:28:29,15.08839091,0.0001302,53.2159,228.1879,86.4729,273.6412,5.1461e-05,5.31e-06,0.0,0 STARLINK-3666,1 51978U 22025Y   24196.22811424  .00000531  00000-0  51461-4 0  9997,2 51978  53.2159 228.1879 0001302  86.4729 273.6412 15.08839091131044,6917.883,95.438,540.649,538.847,0.0
51978.0,STARLINK-3666,PAYLOAD,2024-07-14 08:39:15,15.08840721,0.0001305,53.216,227.5931,86.9843,273.1298,6.4288e-05,7.35e-06,0.0,0 STARLINK-3666,1 51978U 22025Y   24196.36059286  .00000735  00000-0  64288-4 0  9999,2 51978  53.2160 227.5931 0001305  86.9843 273.1298 15.08840721129971,6917.878,95.438,540.646,538.84,0.0
51978.0,STARLINK-3666,PAYLOAD,2024-07-15 11:40:48,15.08841249,0.0001325,53.216,222.5372,91.2161,268.8983,3.8146e-05,3.19e-06,0.0,0 STARLINK-3666,1 51978U 22025Y   24197.48667273  .00000319  00000-0  38146-4 0  9996,2 51978  53.2160 222.5372 0001325  91.2161 268.8983 15.08841249131239,6917.877,95.437,540.658,538.825,0.0
51978.0,STARLINK-3666,PAYLOAD,2024-07-16 08:20:49,15.08836275,0.0001264,53.2155,218.6712,89.4857,270.628,2.9288e-05,1.78e-06,0.0,0 STARLINK-3666,1 51978U 22025Y   24198.34779634  .00000178  00000-0  29288-4 0  9997,2 51978  53.2155 218.6712 0001264  89.4857 270.6280 15.08836275130277,6917.892,95.438,540.631,538.882,0.0
51978.0,STARLINK-3666,PAYLOAD,2024-07-17 08:11:37,15.08831013,0.0001248,53.2155,214.2106,88.2323,271.8812,-1.3805e-05,-5.07e-06,0.0,0 STARLINK-3666,1 51978U 22025Y   24199.34140414 -.00000507  00000-0 -13805-4 0  9992,2 51978  53.2155 214.2106 0001248  88.2323 271.8812 15.08831013131510,6917.908,95.438,540.636,538.91,0.0
51978.0,STARLINK-3666,PAYLOAD,2024-07-18 09:37:47,15.08840229,0.0001263,53.2158,209.4535,91.671,268.4427,9.2892e-05,1.191e-05,0.0,0 STARLINK-3666,1 51978U 22025Y   24200.40123992  .00001191  00000-0  92892-4 0  9995,2 51978  53.2158 209.4535 0001263  91.6710 268.4427 15.08840229131670,6917.88,95.438,540.618,538.871,0.0
51978.0,STARLINK-3666,PAYLOAD,2024-07-18 17:34:42,15.08843072,0.0001237,53.2157,207.9664,90.2932,269.8202,0.00012113,1.641e-05,0.0,0 STARLINK-3666,1 51978U 22025Y   24200.73243766  .00001641  00000-0  12113-3 0  9990,2 51978  53.2157 207.9664 0001237  90.2932 269.8202 15.08843072130637,6917.871,95.437,540.592,538.88,0.0
51978.0,STARLINK-3666,PAYLOAD,2024-07-19 04:42:25,15.08835338,0.0001275,53.2161,205.8852,93.6442,266.4696,0.00010072,1.315e-05,0.0,0 STARLINK-3666,1 51978U 22025Y   24201.19612414  .00001315  00000-0  10072-3 0  9991,2 51978  53.2161 205.8852 0001275  93.6442 266.4696 15.08835338131797,6917.895,95.438,540.642,538.878,0.0
51978.0,STARLINK-3666,PAYLOAD,2024-07-19 07:53:11,15.08836288,0.0001274,53.2161,205.2905,93.2646,266.8492,0.00010642,1.406e-05,0.0,0 STARLINK-3666,1 51978U 22025Y   24201.32860401  .00001406  00000-0  10642-3 0  9991,2 51978  53.2161 205.2905 0001274  93.2646 266.8492 15.08836288130726,6917.892,95.438,540.638,538.875,0.0
51978.0,STARLINK-3666,PAYLOAD,2024-07-19 17:25:29,15.08843666,0.0001285,53.2158,203.5059,86.2021,273.9118,0.00012313,1.672e-05,0.0,0 STARLINK-3666,1 51978U 22025Y   24201.72603822  .00001672  00000-0  12313-3 0  9999,2 51978  53.2158 203.5059 0001285  86.2021 273.9118 15.08843666131873,6917.869,95.437,540.623,538.845,0.0
51978.0,STARLINK-3666,PAYLOAD,2024-07-20 07:43:57,15.08844552,0.0001287,53.2161,200.8298,88.4508,271.6632,4.9703e-05,5.03e-06,0.0,0 STARLINK-3666,1 51978U 22025Y   24202.32219892  .00000503  00000-0  49703-4 0  9992,2 51978  53.2161 200.8298 0001287  88.4508 271.6632 15.08844552130878,6917.866,95.437,540.622,538.841,0.0
51978.0,STARLINK-3666,PAYLOAD,2024-07-20 17:16:16,15.0884784,0.0001289,53.2161,199.0458,87.8308,272.2832,5.4623e-05,5.82e-06,0.0,0 STARLINK-3666,1 51978U 22025Y   24202.71963562  .00000582  00000-0  54623-4 0  9999,2 51978  53.2161 199.0458 0001289  87.8308 272.2832 15.08847840130937,6917.856,95.437,540.613,538.83,0.0
51978.0,STARLINK-3666,PAYLOAD,2024-07-21 05:59:22,15.08838977,0.0001382,53.2168,196.6665,93.7387,266.3763,2.4406e-05,1.01e-06,0.0,0 STARLINK-3666,1 51978U 22025Y   24203.24956132  .00000101  00000-0  24406-4 0  9996,2 51978  53.2168 196.6665 0001382  93.7387 266.3763 15.08838977132103,6917.884,95.438,540.705,538.792,0.0
51978.0,STARLINK-3666,PAYLOAD,2024-07-21 09:10:08,15.08838519,0.0001296,53.2167,196.0715,94.2737,265.8404,7.3209e-05,8.77e-06,0.0,0 STARLINK-3666,1 51978U 22025Y   24203.38203976  .00000877  00000-0  73209-4 0  9997,2 51978  53.2167 196.0715 0001296  94.2737 265.8404 15.08838519131030,6917.885,95.438,540.646,538.853,0.0
51978.0,STARLINK-3666,PAYLOAD,2024-07-22 09:00:55,15.08840537,0.0001476,53.217,191.6104,97.9221,262.1939,2.0072e-05,3.1e-07,0.0,0 STARLINK-3666,1 51978U 22025Y   24204.37563978  .00000031  00000-0  20072-4 0  9990,2 51978  53.2170 191.6104 0001476  97.9221 262.1939 15.08840537132278,6917.879,95.438,540.765,538.723,0.0
51978.0,STARLINK-3666,PAYLOAD,2024-07-23 02:30:09,15.08837903,0.0001421,53.2163,188.3393,96.1054,264.01,5.2857e-05,5.53e-06,0.0,0 STARLINK-3666,1 51978U 22025Y   24205.10428093  .00000553  00000-0  52857-4 0  9995,2 51978  53.2163 188.3393 0001421  96.1054 264.0100 15.08837903131293,6917.887,95.438,540.735,538.769,0.0
51978.0,STARLINK-3666,PAYLOAD,2024-07-23 23:10:11,15.08834883,0.0001442,53.2163,184.474,98.4785,261.637,2.4956e-05,1.09e-06,0.0,0 STARLINK-3666,1 51978U 22025Y   24205.96540575  .00000109  00000-0  24956-4 0  9995,2 51978  53.2163 184.4740 0001442  98.4785 261.6370 15.08834883131426,6917.896,95.438,540.759,538.763,0.0
51978.0,STARLINK-3666,PAYLOAD,2024-07-24 05:31:43,15.08831258,0.0001377,53.2162,183.2838,100.4307,259.684,-5.442e-06,-3.74e-06,0.0,0 STARLINK-3666,1 51978U 22025Y   24206.23036943 -.00000374  00000-0 -54420-5 0  9991,2 51978  53.2162 183.2838 0001377 100.4307 259.6840 15.08831258132558,6917.907,95.438,540.725,538.82,0.0
51978.0,STARLINK-3666,PAYLOAD,2024-07-24 23:00:58,15.08836294,0.0001331,53.2161,180.0123,100.8597,259.2545,3.3868e-05,2.51e-06,0.0,0 STARLINK-3666,1 51978U 22025Y   24206.95900760  .00000251  00000-0  33868-4 0  9991,2 51978  53.2161 180.0123 0001331 100.8597 259.2545 15.08836294131578,6917.892,95.438,540.677,538.836,0.0
51978.0,STARLINK-3666,PAYLOAD,2024-07-25 05:22:30,15.08838834,0.0001339,53.2161,178.8235,97.9,262.2144,5.4037e-05,5.72e-06,0.0,0 STARLINK-3666,1 51978U 22025Y   24207.22396608  .00000572  00000-0  54037-4 0  9999,2 51978  53.2161 178.8235 0001339  97.9000 262.2144 15.08838834132707,6917.884,95.438,540.675,538.823,0.0
51978.0,STARLINK-3666,PAYLOAD,2024-07-25 06:57:53,15.08839676,0.0001327,53.2162,178.5267,95.5311,264.5832,5.8538e-05,6.44e-06,0.0,0 STARLINK-3666,1 51978U 22025Y   24207.29020565  .00000644  00000-0  58538-4 0  9992,2 51978  53.2162 178.5267 0001327  95.5311 264.5832 15.08839676131620,6917.881,95.438,540.664,538.828,0.0
51978.0,STARLINK-3666,PAYLOAD,2024-07-26 06:48:41,15.08836399,0.0001306,53.2163,174.0665,91.4184,268.6958,9.0084e-05,1.146e-05,0.0,0 STARLINK-3666,1 51978U 22025Y   24208.28380857  .00001146  00000-0  90084-4 0  9995,2 51978  53.2163 174.0665 0001306  91.4184 268.6958 15.08836399132864,6917.891,95.438,540.66,538.853,0.0
51978.0,STARLINK-3666,PAYLOAD,2024-07-26 14:45:36,15.08840185,0.0001379,53.2167,172.5831,92.2475,267.8675,8.3184e-05,1.036e-05,0.0,0 STARLINK-3666,1 51978U 22025Y   24208.61500709  .00001036  00000-0  83184-4 0  9993,2 51978  53.2167 172.5831 0001379  92.2475 267.8675 15.08840185131828,6917.88,95.438,540.699,538.791,0.0
51978.0,STARLINK-3666,PAYLOAD,2024-07-27 05:04:02,15.08868589,0.0001116,53.2165,169.9071,93.2641,266.8479,0.00024279,3.581e-05,0.0,0 STARLINK-3666,1 51978U 22025Y   24209.21113620  .00003581  00000-0  24279-3 0  9998,2 51978  53.2165 169.9071 0001116  93.2641 266.8479 15.08868589133008,6917.793,95.436,540.43,538.886,0.0
51978.0,STARLINK-3666,PAYLOAD,2024-07-28 04:54:51,15.08834528,0.0001261,53.2158,165.4423,87.3517,272.7619,-5.1113e-05,-1.101e-05,0.0,0 STARLINK-3666,1 51978U 22025Y   24210.20476601 -.00001101  00000-0 -51113-4 0  9996,2 51978  53.2158 165.4423 0001261  87.3517 272.7619 15.08834528133153,6917.897,95.438,540.634,538.89,0.0
51978.0,STARLINK-3666,PAYLOAD,2024-07-29 03:10:12,15.08941079,8.54e-05,53.2164,161.2785,41.7205,318.3852,-0.0014974,-0.00024105,0.0,0 STARLINK-3666,1 51978U 22025Y   24211.13208568 -.00024105  00000-0 -14974-2 0  9995,2 51978  53.2164 161.2785 0000854  41.7205 318.3852 15.08941079133291,6917.571,95.431,540.027,538.846,0.0
51978.0,STARLINK-3666,PAYLOAD,2024-07-29 11:07:11,15.08831668,0.0001258,53.2169,159.7922,93.8094,266.3042,0.00013088,1.795e-05,0.0,0 STARLINK-3666,1 51978U 22025Y   24211.46332251  .00001795  00000-0  13088-3 0  9992,2 51978  53.2169 159.7922 0001258  93.8094 266.3042 15.08831668133345,6917.906,95.438,540.641,538.901,0.0
51978.0,STARLINK-3666,PAYLOAD,2024-07-29 20:39:30,15.088298,0.0001279,53.2173,158.0081,95.1882,264.9256,7.2461e-05,8.65e-06,0.0,0 STARLINK-3666,1 51978U 22025Y   24211.86076890  .00000865  00000-0  72461-4 0  9998,2 51978  53.2173 158.0081 0001279  95.1882 264.9256 15.08829800132313,6917.912,95.438,540.661,538.892,0.0
